start=new Date('2022-08-31T00:00:00.000Z').valueOf();
sats=[{"GP_ID":"211363188","MEAN_MOTION_DDOT":"0.0000000000000","EPHEMERIS_TYPE":"0","CENTER_NAME":"EARTH","MEAN_ELEMENT_THEORY":"SGP4","RA_OF_ASC_NODE":"145.4911","DECAY_DATE":null,"FILE":"3552179","ELEMENT_SET_NO":"999","INCLINATION":"53.2192","NORAD_CAT_ID":"53417","BSTAR":"-0.00062408000000","REF_FRAME":"TEME","TLE_LINE1":"1 53417U 22097AF  22242.91667824 -.00087537  00000-0 -62408-3 0  9990","APOAPSIS":"350.214","EPOCH":"2022-08-30T22:00:00.999936","SEMIMAJOR_AXIS":"6727.710","TIME_SYSTEM":"UTC","REV_AT_EPOCH":"130","MEAN_MOTION":"15.73264838","ECCENTRICITY":"0.00009500","OBJECT_NAME":"STARLINK-4484","OBJECT_ID":"2022-097AF","PERIOD":"91.529","ARG_OF_PERICENTER":"75.3664","CLASSIFICATION_TYPE":"U","TLE_LINE2":"2 53417  53.2192 145.4911 0000950  75.3664   4.9017 15.73264838  1306","SITE":"AFETR","COUNTRY_CODE":"US","OBJECT_TYPE":"PAYLOAD","MEAN_ANOMALY":"4.9017","PERIAPSIS":"348.936","LAUNCH_DATE":"2022-08-10","MEAN_MOTION_DOT":"-0.00087537","RCS_SIZE":"LARGE"},{"MEAN_MOTION":"15.73207097","ECCENTRICITY":"0.00012100","TIME_SYSTEM":"UTC","REV_AT_EPOCH":"130","COUNTRY_CODE":"US","OBJECT_TYPE":"PAYLOAD","MEAN_ANOMALY":"41.7309","RCS_SIZE":"LARGE","PERIAPSIS":"348.926","LAUNCH_DATE":"2022-08-10","MEAN_MOTION_DOT":"-0.00024760","PERIOD":"91.533","ARG_OF_PERICENTER":"91.6632","OBJECT_NAME":"STARLINK-4481","OBJECT_ID":"2022-097AG","CLASSIFICATION_TYPE":"U","TLE_LINE2":"2 53418  53.2191 145.3811 0001210  91.6632  41.7309 15.73207097  1307","SITE":"AFETR","ELEMENT_SET_NO":"999","FILE":"3552179","DECAY_DATE":null,"INCLINATION":"53.2191","BSTAR":"-0.00017247000000","NORAD_CAT_ID":"53418","EPHEMERIS_TYPE":"0","MEAN_MOTION_DDOT":"0.0000000000000","GP_ID":"211363319","CENTER_NAME":"EARTH","MEAN_ELEMENT_THEORY":"SGP4","RA_OF_ASC_NODE":"145.3811","APOAPSIS":"350.554","EPOCH":"2022-08-30T22:00:00.999936","SEMIMAJOR_AXIS":"6727.875","REF_FRAME":"TEME","TLE_LINE1":"1 53418U 22097AG  22242.91667824 -.00024760  00000-0 -17247-3 0  9991"},{"TIME_SYSTEM":"UTC","REV_AT_EPOCH":"130","MEAN_MOTION":"15.73179073","ECCENTRICITY":"0.00011730","CLASSIFICATION_TYPE":"U","OBJECT_NAME":"STARLINK-4476","OBJECT_ID":"2022-097AH","PERIOD":"91.534","ARG_OF_PERICENTER":"75.8811","SITE":"AFETR","TLE_LINE2":"2 53419  53.2190 145.4889 0001173  75.8811   5.0540 15.73179073  1306","OBJECT_TYPE":"PAYLOAD","COUNTRY_CODE":"US","MEAN_MOTION_DOT":"0.00005397","LAUNCH_DATE":"2022-08-10","PERIAPSIS":"349.031","RCS_SIZE":"LARGE","MEAN_ANOMALY":"5.0540","CENTER_NAME":"EARTH","MEAN_MOTION_DDOT":"0.0000000000000","GP_ID":"211363463","EPHEMERIS_TYPE":"0","MEAN_ELEMENT_THEORY":"SGP4","RA_OF_ASC_NODE":"145.4889","FILE":"3552179","DECAY_DATE":null,"ELEMENT_SET_NO":"999","NORAD_CAT_ID":"53419","BSTAR":"0.00004287900000","INCLINATION":"53.2190","REF_FRAME":"TEME","TLE_LINE1":"1 53419U 22097AH  22242.91667824  .00005397  00000-0  42879-4 0  9995","APOAPSIS":"350.609","SEMIMAJOR_AXIS":"6727.955","EPOCH":"2022-08-30T22:00:00.999936"},{"EPHEMERIS_TYPE":"0","GP_ID":"211363751","MEAN_MOTION_DDOT":"0.0000000000000","CENTER_NAME":"EARTH","RA_OF_ASC_NODE":"145.4844","MEAN_ELEMENT_THEORY":"SGP4","ELEMENT_SET_NO":"999","DECAY_DATE":null,"FILE":"3552179","INCLINATION":"53.2193","BSTAR":"-0.00006543900000","NORAD_CAT_ID":"53420","REF_FRAME":"TEME","TLE_LINE1":"1 53420U 22097AJ  22242.91667824 -.00009788  00000-0 -65439-4 0  9994","APOAPSIS":"350.595","EPOCH":"2022-08-30T22:00:00.999936","SEMIMAJOR_AXIS":"6727.926","TIME_SYSTEM":"UTC","REV_AT_EPOCH":"130","MEAN_MOTION":"15.73189033","ECCENTRICITY":"0.00011940","PERIOD":"91.534","ARG_OF_PERICENTER":"92.1581","OBJECT_NAME":"STARLINK-4552","OBJECT_ID":"2022-097AJ","CLASSIFICATION_TYPE":"U","TLE_LINE2":"2 53420  53.2193 145.4844 0001194  92.1581 351.7792 15.73189033  1308","SITE":"AFETR","COUNTRY_CODE":"US","OBJECT_TYPE":"PAYLOAD","MEAN_ANOMALY":"351.7792","RCS_SIZE":"LARGE","PERIAPSIS":"348.988","LAUNCH_DATE":"2022-08-10","MEAN_MOTION_DOT":"-0.00009788"},{"MEAN_MOTION":"15.73161604","ECCENTRICITY":"0.00014160","TIME_SYSTEM":"UTC","REV_AT_EPOCH":"130","COUNTRY_CODE":"US","OBJECT_TYPE":"PAYLOAD","MEAN_ANOMALY":"355.4131","RCS_SIZE":"LARGE","MEAN_MOTION_DOT":"-0.00011686","LAUNCH_DATE":"2022-08-10","PERIAPSIS":"348.917","PERIOD":"91.535","ARG_OF_PERICENTER":"86.7195","OBJECT_NAME":"STARLINK-4545","OBJECT_ID":"2022-097AK","CLASSIFICATION_TYPE":"U","TLE_LINE2":"2 53421  53.2190 145.4867 0001416  86.7195 355.4131 15.73161604  1300","SITE":"AFETR","ELEMENT_SET_NO":"999","FILE":"3552179","DECAY_DATE":null,"INCLINATION":"53.2190","BSTAR":"-0.00007909100000","NORAD_CAT_ID":"53421","EPHEMERIS_TYPE":"0","GP_ID":"211363607","MEAN_MOTION_DDOT":"0.0000000000000","CENTER_NAME":"EARTH","RA_OF_ASC_NODE":"145.4867","MEAN_ELEMENT_THEORY":"SGP4","APOAPSIS":"350.822","EPOCH":"2022-08-30T22:00:00.999936","SEMIMAJOR_AXIS":"6728.005","REF_FRAME":"TEME","TLE_LINE1":"1 53421U 22097AK  22242.91667824 -.00011686  00000-0 -79091-4 0  9994"},{"CLASSIFICATION_TYPE":"U","OBJECT_ID":"2022-097AL","OBJECT_NAME":"STARLINK-4546","ARG_OF_PERICENTER":"80.3278","PERIOD":"91.534","SITE":"AFETR","TLE_LINE2":"2 53422  53.2191 145.4810 0001097  80.3278   4.7918 15.73184726  1304","OBJECT_TYPE":"PAYLOAD","COUNTRY_CODE":"US","LAUNCH_DATE":"2022-08-10","MEAN_MOTION_DOT":"0.00004569","PERIAPSIS":"349.066","RCS_SIZE":"LARGE","MEAN_ANOMALY":"4.7918","TIME_SYSTEM":"UTC","REV_AT_EPOCH":"130","MEAN_MOTION":"15.73184726","ECCENTRICITY":"0.00010970","REF_FRAME":"TEME","TLE_LINE1":"1 53422U 22097AL  22242.91667824  .00004569  00000-0  36976-4 0  9990","APOAPSIS":"350.542","SEMIMAJOR_AXIS":"6727.939","EPOCH":"2022-08-30T22:00:00.999936","CENTER_NAME":"EARTH","GP_ID":"211362901","MEAN_MOTION_DDOT":"0.0000000000000","EPHEMERIS_TYPE":"0","MEAN_ELEMENT_THEORY":"SGP4","RA_OF_ASC_NODE":"145.4810","FILE":"3552179","DECAY_DATE":null,"ELEMENT_SET_NO":"999","BSTAR":"0.00003697600000","NORAD_CAT_ID":"53422","INCLINATION":"53.2191"},{"MEAN_MOTION":"15.73266629","ECCENTRICITY":"0.00012290","TIME_SYSTEM":"UTC","REV_AT_EPOCH":"130","COUNTRY_CODE":"US","OBJECT_TYPE":"PAYLOAD","MEAN_ANOMALY":"1.8202","RCS_SIZE":"LARGE","LAUNCH_DATE":"2022-08-10","PERIAPSIS":"348.743","MEAN_MOTION_DOT":"-0.00076531","ARG_OF_PERICENTER":"80.7202","PERIOD":"91.529","OBJECT_NAME":"STARLINK-4539","OBJECT_ID":"2022-097AM","CLASSIFICATION_TYPE":"U","TLE_LINE2":"2 53423  53.2195 145.4876 0001229  80.7202   1.8202 15.73266629  1306","SITE":"AFETR","ELEMENT_SET_NO":"999","FILE":"3552179","DECAY_DATE":null,"INCLINATION":"53.2195","BSTAR":"-0.00054428000000","NORAD_CAT_ID":"53423","EPHEMERIS_TYPE":"0","GP_ID":"211363045","MEAN_MOTION_DDOT":"0.0000000000000","CENTER_NAME":"EARTH","RA_OF_ASC_NODE":"145.4876","MEAN_ELEMENT_THEORY":"SGP4","APOAPSIS":"350.397","EPOCH":"2022-08-30T22:00:00.999936","SEMIMAJOR_AXIS":"6727.705","REF_FRAME":"TEME","TLE_LINE1":"1 53423U 22097AM  22242.91667824 -.00076531  00000-0 -54428-3 0  9992"},{"TLE_LINE1":"1 53424U 22097AN  22242.91667824 -.00013768  00000-0 -94014-4 0  9992","REF_FRAME":"TEME","SEMIMAJOR_AXIS":"6728.011","EPOCH":"2022-08-30T22:00:00.999936","APOAPSIS":"350.632","MEAN_ELEMENT_THEORY":"SGP4","RA_OF_ASC_NODE":"145.4790","CENTER_NAME":"EARTH","EPHEMERIS_TYPE":"0","MEAN_MOTION_DDOT":"0.0000000000000","GP_ID":"211363907","NORAD_CAT_ID":"53424","BSTAR":"-0.00009401400000","INCLINATION":"53.2190","ELEMENT_SET_NO":"999","DECAY_DATE":null,"FILE":"3552179","SITE":"AFETR","TLE_LINE2":"2 53424  53.2190 145.4790 0001123  90.8484 355.4382 15.73159205  1302","CLASSIFICATION_TYPE":"U","ARG_OF_PERICENTER":"90.8484","PERIOD":"91.536","OBJECT_ID":"2022-097AN","OBJECT_NAME":"STARLINK-4532","RCS_SIZE":"LARGE","LAUNCH_DATE":"2022-08-10","MEAN_MOTION_DOT":"-0.00013768","PERIAPSIS":"349.121","MEAN_ANOMALY":"355.4382","OBJECT_TYPE":"PAYLOAD","COUNTRY_CODE":"US","REV_AT_EPOCH":"130","TIME_SYSTEM":"UTC","ECCENTRICITY":"0.00011230","MEAN_MOTION":"15.73159205"},{"COUNTRY_CODE":"US","OBJECT_TYPE":"PAYLOAD","MEAN_ANOMALY":"355.2624","PERIAPSIS":"348.935","LAUNCH_DATE":"2022-08-10","MEAN_MOTION_DOT":"-0.00015385","RCS_SIZE":"LARGE","OBJECT_NAME":"STARLINK-4531","OBJECT_ID":"2022-097AP","PERIOD":"91.534","ARG_OF_PERICENTER":"89.2280","CLASSIFICATION_TYPE":"U","TLE_LINE2":"2 53425  53.2192 145.4821 0001259  89.2280 355.2624 15.73192496  1302","SITE":"AFETR","MEAN_MOTION":"15.73192496","ECCENTRICITY":"0.00012590","TIME_SYSTEM":"UTC","REV_AT_EPOCH":"130","APOAPSIS":"350.629","EPOCH":"2022-08-30T22:00:00.999936","SEMIMAJOR_AXIS":"6727.917","REF_FRAME":"TEME","TLE_LINE1":"1 53425U 22097AP  22242.91667824 -.00015385  00000-0 -10544-3 0  9995","FILE":"3552179","DECAY_DATE":null,"ELEMENT_SET_NO":"999","INCLINATION":"53.2192","NORAD_CAT_ID":"53425","BSTAR":"-0.00010544000000","GP_ID":"211363189","MEAN_MOTION_DDOT":"0.0000000000000","EPHEMERIS_TYPE":"0","CENTER_NAME":"EARTH","RA_OF_ASC_NODE":"145.4821","MEAN_ELEMENT_THEORY":"SGP4"},{"SITE":"AFETR","TLE_LINE2":"2 53426  53.2190 145.4779 0001147  84.9025   2.0348 15.73216250  1303","CLASSIFICATION_TYPE":"U","PERIOD":"91.532","ARG_OF_PERICENTER":"84.9025","OBJECT_NAME":"STARLINK-4558","OBJECT_ID":"2022-097AQ","RCS_SIZE":"LARGE","LAUNCH_DATE":"2022-08-10","PERIAPSIS":"348.942","MEAN_MOTION_DOT":"-0.00091981","MEAN_ANOMALY":"2.0348","OBJECT_TYPE":"PAYLOAD","COUNTRY_CODE":"US","REV_AT_EPOCH":"130","TIME_SYSTEM":"UTC","ECCENTRICITY":"0.00011470","MEAN_MOTION":"15.73216250","TLE_LINE1":"1 53426U 22097AQ  22242.91667824 -.00091981  00000-0 -65769-3 0  9991","REF_FRAME":"TEME","SEMIMAJOR_AXIS":"6727.849","EPOCH":"2022-08-30T22:00:00.999936","APOAPSIS":"350.486","MEAN_ELEMENT_THEORY":"SGP4","RA_OF_ASC_NODE":"145.4779","CENTER_NAME":"EARTH","EPHEMERIS_TYPE":"0","GP_ID":"211363320","MEAN_MOTION_DDOT":"0.0000000000000","BSTAR":"-0.00065769000000","NORAD_CAT_ID":"53426","INCLINATION":"53.2190","ELEMENT_SET_NO":"999","FILE":"3552179","DECAY_DATE":null}];
